[{"OBJECT_NAME":"STARLINK-35972","OBJECT_ID":"2025-271X","EPOCH":"2026-03-09T13:30:39.339648","MEAN_MOTION":15.30180455,"ECCENTRICITY":0.0001345,"INCLINATION":53.1577,"RA_OF_ASC_NODE":140.7783,"ARG_OF_PERICENTER":72.4079,"MEAN_ANOMALY":287.7068,"EPHEMERIS_TYPE":0,"CLASSIFICATION_TYPE":"U","NORAD_CAT_ID":66638,"ELEMENT_SET_NO":999,"REV_AT_EPOCH":1754,"BSTAR":0.0013219,"MEAN_MOTION_DOT":0.00038974,"MEAN_MOTION_DDOT":0},{"OBJECT_NAME":"DELTA 1 DEB","OBJECT_ID":"1977-065CC","EPOCH":"2026-03-09T22:33:14.085504","MEAN_MOTION":13.8497458,"ECCENTRICITY":0.06695418,"INCLINATION":28.9783,"RA_OF_ASC_NODE":359.1013,"ARG_OF_PERICENTER":308.7305,"MEAN_ANOMALY":45.5226,"EPHEMERIS_TYPE":0,"CLASSIFICATION_TYPE":"U","NORAD_CAT_ID":10251,"ELEMENT_SET_NO":999,"REV_AT_EPOCH":40349,"BSTAR":0.00050077095,"MEAN_MOTION_DOT":3.77e-5,"MEAN_MOTION_DDOT":0}]
